KUZGTU 1 (RS47S)        
1 57217U 23091AV  26169.66928248  .00009412  00000+0  32709-3 0  9995
2 57217  97.5060 234.1645 0012277  93.5321 266.7323 15.29889754164602
SONATE-2                
1 59112U 24043Q   26169.67901345  .00030619  00000+0  39665-3 0  9990
2 59112  97.5539 320.1662 0007133 190.3549 169.7561 15.58811253128121
MESAT1                  
1 60209U 24125G   26169.32249336  .00046639  00000+0  50655-3 0  9998
2 60209  97.2281  26.8304 0009668 199.4839 160.6052 15.63304730109746
OOV-CUBE (TUBSAT-30)    
1 60240U 24128F   26169.58586730  .00001416  00000+0  11902-3 0  9992
2 60240  61.9932 220.6959 0044464 134.0792 226.3973 15.02778203106324
COLIBRI-S (RS67S)       
1 61746U 24199M   26169.67813014  .00016868  00000+0  32659-3 0  9999
2 61746  97.2988  43.5455 0006264 271.3906  88.6627 15.47775215137643
HORS 3 (RS81S)          
1 61753U 24199U   26169.63390550  .00031144  00000+0  46383-3 0  9991
2 61753  97.2970  45.5032 0003764 269.5308  90.5515 15.55058704137781
HORS 4 (RS82S)          
1 61754U 24199V   26169.65427777  .00037978  00000+0  47370-3 0  9994
2 61754  97.2913  46.7350 0003231 248.4505 111.6407 15.59795210137878
SIT-2086                
1 61764U 24199AF  26169.67833471  .00029883  00000+0  47659-3 0  9995
2 61764  97.2926  46.0197 0004728 242.6168 117.4604 15.53171601134661
HYPERVIEW 1G (RS66S)    
1 61772U 24199AP  26169.52300580  .00119986  00000+0  76128-3 0  9995
2 61772  97.2864  49.3091 0004092 213.0172 147.0839 15.76152791134888
ALTAIR (RS65S)          
1 61779U 24199AW  26169.67446772  .00006400  00000+0  17854-3 0  9999
2 61779  97.3023  39.0152 0010999 305.1527  54.8686 15.37040954137340
ASRTU-1 (AO-123)        
1 61781U 24199AY  26169.66367255  .00006545  00000+0  19047-3 0  9995
2 61781  97.2994  38.3209 0012173 308.1426  51.8720 15.35694070134155
SAMSAT-IONOSPHERE (RS7*)
1 61784U 24199BB  26169.66544069  .00035984  00000+0  48485-3 0  9995
2 61784  97.2936  45.5874 0005933 268.7930  91.2646 15.57735120137793
RTU MIREA 1 (RS51S)     
1 61785U 24199BC  26169.68656510  .00046031  00000+0  54271-3 0  9998
2 61785  97.2923  46.4484 0005569 259.3939 100.6691 15.61223120134707
TEVEL2-4                
1 63213U 25052D   26169.16026822  .00013925  00000+0  41679-3 0  9999
2 63213  97.3899  65.5534 0004892 101.1057 259.0736 15.34638877 70267
TEVEL2-5                
1 63214U 25052E   26169.24609025  .00014381  00000+0  43269-3 0  9995
2 63214  97.3896  65.5869 0004830 102.4501 257.7282 15.34468179 70274
TEVEL2-6                
1 63215U 25052F   26169.64972185  .00014665  00000+0  44149-3 0  9993
2 63215  97.3902  65.9753 0004754 102.3896 257.7879 15.34444200 70338
TEVEL2-1                
1 63217U 25052H   26167.98311732  .00015254  00000+0  46759-3 0  9999
2 63217  97.3878  63.9315 0004776 114.0246 246.1497 15.33862790 70062
TEVEL2-3                
1 63218U 25052J   26169.21721413  .00013636  00000+0  41717-3 0  9990
2 63218  97.3876  65.1876 0004784 111.6864 248.4888 15.33951855 70256
TEVEL2-2                
1 63219U 25052K   26169.61432708  .00013531  00000+0  41444-3 0  9992
2 63219  97.3876  65.5651 0004772 111.0401 249.1353 15.33915374 70318
TEVEL2-9                
1 63237U 25052AD  26169.20167564  .00012483  00000+0  40696-3 0  9995
2 63237  97.3936  64.5254 0007883 127.9534 232.2421 15.31922489 70189
TEVEL2-7                
1 63238U 25052AE  26169.70010282  .00011996  00000+0  39463-3 0  9993
2 63238  97.3937  64.9383 0008007 127.0437 233.1538 15.31638838 70259
TEVEL2-8                
1 63239U 25052AF  26169.64303769  .00012666  00000+0  41670-3 0  9990
2 63239  97.3938  64.8582 0007990 127.5686 232.6282 15.31622115 70242
INNOSAT 16 (RS92S7)     
1 64878U 25155C   26169.57634852  .00004545  00000+0  18224-3 0  9992
2 64878  97.4567 136.6996 0010719 170.6194 189.5246 15.25468327 80881
GEOSCAN 6 (RS92S6)      
1 64879U 25155D   26169.62025392  .00007799  00000+0  26950-3 0  9991
2 64879  97.4561 138.1775 0008536 157.8347 202.3264 15.30173529 80987
GEOSCAN 1 (RS92S1)      
1 64880U 25155E   26169.62214560  .00008285  00000+0  28090-3 0  9998
2 64880  97.4557 138.3287 0008464 157.5174 202.6439 15.30770094 80997
239ALFEROV (RS61S)      
1 64881U 25155F   26169.58973599  .00011538  00000+0  36428-3 0  9997
2 64881  97.4558 138.8623 0008211 154.6965 205.4680 15.32970429 81024
GEOSCAN 2 (RS92S2)      
1 64890U 25155Q   26169.68093326  .00008609  00000+0  28934-3 0  9997
2 64890  97.4556 138.5410 0008267 144.9865 215.1921 15.31042805 81017
GEOSCAN 5 (RS92S5)      
1 64891U 25155R   26169.64373189  .00011044  00000+0  34544-3 0  9993
2 64891  97.4551 139.0548 0006954 158.0577 202.0964 15.33288839 81044
GEOSCAN 4 (RS92S4)      
1 64892U 25155S   26169.69303242  .00010844  00000+0  33758-3 0  9995
2 64892  97.4554 139.1534 0007021 157.4960 202.6591 15.33444895 81058
GEOSCAN 3 (RS92S3)      
1 64893U 25155T   26169.69183957  .00013855  00000+0  40425-3 0  9999
2 64893  97.4543 139.5863 0006975 155.8213 204.3359 15.35437625 81085
