OBJECT_NAME,OBJECT_ID,EPOCH,MEAN_MOTION,ECCENTRICITY,INCLINATION,RA_OF_ASC_NODE,ARG_OF_PERICENTER,MEAN_ANOMALY,EPHEMERIS_TYPE,CLASSIFICATION_TYPE,NORAD_CAT_ID,ELEMENT_SET_NO,REV_AT_EPOCH,BSTAR,MEAN_MOTION_DOT,MEAN_MOTION_DDOT
KUZGTU 1 (RS47S),2023-091AV,2026-06-18T16:03:46.006272,15.29889754,.0012277,97.5060,234.1645,93.5321,266.7323,0,U,57217,999,16460,.32709E-3,.9412E-4,0
SONATE-2,2024-043Q,2026-06-18T16:17:46.762080,15.58811253,.0007133,97.5539,320.1662,190.3549,169.7561,0,U,59112,999,12812,.39665E-3,.30619E-3,0
MESAT1,2024-125G,2026-06-18T07:44:23.426304,15.63304730,.0009668,97.2281,26.8304,199.4839,160.6052,0,U,60209,999,10974,.50655E-3,.46639E-3,0
OOV-CUBE (TUBSAT-30),2024-128F,2026-06-18T14:03:38.934720,15.02778203,.0044464,61.9932,220.6959,134.0792,226.3973,0,U,60240,999,10632,.11902E-3,.1416E-4,0
COLIBRI-S (RS67S),2024-199M,2026-06-18T16:16:30.444096,15.47775215,.0006264,97.2988,43.5455,271.3906,88.6627,0,U,61746,999,13764,.32659E-3,.16868E-3,0
HORS 3 (RS81S),2024-199U,2026-06-18T15:12:49.435200,15.55058704,.0003764,97.2970,45.5032,269.5308,90.5515,0,U,61753,999,13778,.46383E-3,.31144E-3,0
HORS 4 (RS82S),2024-199V,2026-06-18T15:42:09.599328,15.59795210,.0003231,97.2913,46.7350,248.4505,111.6407,0,U,61754,999,13787,.4737E-3,.37978E-3,0
SIT-2086,2024-199AF,2026-06-18T16:16:48.118944,15.53171601,.0004728,97.2926,46.0197,242.6168,117.4604,0,U,61764,999,13466,.47659E-3,.29883E-3,0
HYPERVIEW 1G (RS66S),2024-199AP,2026-06-18T12:33:07.701120,15.76152791,.0004092,97.2864,49.3091,213.0172,147.0839,0,U,61772,999,13488,.76128E-3,.119986E-2,0
ALTAIR (RS65S),2024-199AW,2026-06-18T16:11:14.011008,15.37040954,.0010999,97.3023,39.0152,305.1527,54.8686,0,U,61779,999,13734,.17854E-3,.64E-4,0
ASRTU-1 (AO-123),2024-199AY,2026-06-18T15:55:41.308320,15.35694070,.0012173,97.2994,38.3209,308.1426,51.8720,0,U,61781,999,13415,.19047E-3,.6545E-4,0
SAMSAT-IONOSPHERE (RS75S),2024-199BB,2026-06-18T15:58:14.075616,15.57735120,.0005933,97.2936,45.5874,268.7930,91.2646,0,U,61784,999,13779,.48485E-3,.35984E-3,0
RTU MIREA 1 (RS51S),2024-199BC,2026-06-18T16:28:39.224640,15.61223120,.0005569,97.2923,46.4484,259.3939,100.6691,0,U,61785,999,13470,.54271E-3,.46031E-3,0
TEVEL2-4,2025-052D,2026-06-18T03:50:47.174208,15.34638877,.00048922,97.3899,65.5534,101.1057,259.0736,0,U,63213,999,7026,.416794E-3,.13925E-3,0
TEVEL2-5,2025-052E,2026-06-18T05:54:22.197600,15.34468179,.000483,97.3896,65.5869,102.4501,257.7282,0,U,63214,999,7027,.43269E-3,.14381E-3,0
TEVEL2-6,2025-052F,2026-06-18T15:35:35.967840,15.34444200,.0004754,97.3902,65.9753,102.3896,257.7879,0,U,63215,999,7033,.44149E-3,.14665E-3,0
TEVEL2-1,2025-052H,2026-06-16T23:35:41.336448,15.33862790,.0004776,97.3878,63.9315,114.0246,246.1497,0,U,63217,999,7006,.46759393E-3,.15254E-3,0
TEVEL2-3,2025-052J,2026-06-18T05:12:47.300832,15.33951855,.0004784,97.3876,65.1876,111.6864,248.4888,0,U,63218,999,7025,.41717E-3,.13636E-3,0
TEVEL2-2,2025-052K,2026-06-18T14:44:37.859712,15.33915374,.0004772,97.3876,65.5651,111.0401,249.1353,0,U,63219,999,7031,.41444E-3,.13531E-3,0
TEVEL2-9,2025-052AD,2026-06-18T04:50:24.775296,15.31922489,.0007883,97.3936,64.5254,127.9534,232.2421,0,U,63237,999,7018,.40696E-3,.12483E-3,0
TEVEL2-7,2025-052AE,2026-06-18T16:48:08.883648,15.31638838,.0008007,97.3937,64.9383,127.0437,233.1538,0,U,63238,999,7025,.39463E-3,.11996E-3,0
TEVEL2-8,2025-052AF,2026-06-18T15:25:58.456416,15.31622115,.000799,97.3938,64.8582,127.5686,232.6282,0,U,63239,999,7024,.4167E-3,.12666E-3,0
INNOSAT 16 (RS92S7),2025-155C,2026-06-18T13:49:56.512128,15.25468327,.00107197,97.4567,136.6996,170.6194,189.5246,0,U,64878,999,8088,.1822443E-3,.4545E-4,0
GEOSCAN 6 (RS92S6),2025-155D,2026-06-18T14:53:09.938688,15.30173529,.00085365,97.4561,138.1775,157.8347,202.3264,0,U,64879,999,8098,.26949911E-3,.7799E-4,0
GEOSCAN 1 (RS92S1),2025-155E,2026-06-18T14:55:53.379840,15.30770094,.00084643,97.4557,138.3287,157.5174,202.6439,0,U,64880,999,8099,.28090309E-3,.8285E-4,0
239ALFEROV (RS61S),2025-155F,2026-06-18T14:09:13.189536,15.32970429,.00082112,97.4558,138.8623,154.6965,205.4680,0,U,64881,999,8102,.36427984E-3,.11538E-3,0
GEOSCAN 2 (RS92S2),2025-155Q,2026-06-18T16:20:32.633664,15.31042805,.0008267,97.4556,138.5410,144.9865,215.1921,0,U,64890,999,8101,.28934E-3,.8609E-4,0
GEOSCAN 5 (RS92S5),2025-155R,2026-06-18T15:26:58.435296,15.33288839,.0006954,97.4551,139.0548,158.0577,202.0964,0,U,64891,999,8104,.34544E-3,.11044E-3,0
GEOSCAN 4 (RS92S4),2025-155S,2026-06-18T16:37:58.001088,15.33444895,.0007021,97.4554,139.1534,157.4960,202.6591,0,U,64892,999,8105,.33758E-3,.10844E-3,0
GEOSCAN 3 (RS92S3),2025-155T,2026-06-18T16:36:14.938848,15.35437625,.0006975,97.4543,139.5863,155.8213,204.3359,0,U,64893,999,8108,.40425E-3,.13855E-3,0
